STARLINK-30163          
1 57309U 23096V   25353.77347971  .02044137  88077-5  11412-2 0  9994
2 57309  42.9682 212.1939 0020358 256.6631 103.1983 16.17853706135672
STARLINK-30184          
1 57310U 23096W   25353.14692335 -.00000410  00000+0 -15252-4 0  9992
2 57310  43.0040 274.7792 0000897 294.4334  65.6415 15.02540050134906
STARLINK-30175          
1 57311U 23096X   25353.83335647  .00137887  00000+0  23937-2 0  9993
2 57311  42.9825 258.8038 0032986 195.4540 141.8799 15.49037182  5878
STARLINK-6290           
1 57328U 23099A   25353.32429823  .00000114  00000+0  23494-4 0  9990
2 57328  43.0058 325.9975 0001244 267.9158  92.1542 15.02532930134939
STARLINK-6138           
1 57329U 23099B   25353.24782914  .00000639  00000+0  62405-4 0  9992
2 57329  43.0050 326.2756 0001188 275.1396  84.9311 15.02538364134014
STARLINK-6212           
1 57330U 23099C   25353.65337148  .00007277  00000+0  55295-3 0  9997
2 57330  43.0032 324.1667 0000498 276.9566  83.1219 15.02551079134077
STARLINK-6234           
1 57331U 23099D   25353.65224598  .00000241  00000+0  32892-4 0  9995
2 57331  43.0046 324.1573 0001117 267.9807  92.0907 15.02535895134077
STARLINK-5831           
1 57332U 23099E   25353.25115834  .00000814  00000+0  75299-4 0  9998
2 57332  43.0058 326.3046 0001112 272.8038  87.2678 15.02534316134018
STARLINK-5585           
1 57333U 23099F   25353.25004883  .00000526  00000+0  54018-4 0  9996
2 57333  43.0048 326.2975 0001115 275.6549  84.4166 15.02537600134019
STARLINK-5589           
1 57334U 23099G   25352.91211475 -.00000850  00000+0 -47885-4 0  9992
2 57334  43.0052 328.0544 0001159 273.0276  87.0434 15.02534775133964
STARLINK-6316           
1 57335U 23099H   25352.23623570 -.00000677  00000+0 -35033-4 0  9990
2 57335  43.0057 331.5919 0001220 271.0854  88.9849 15.02538145133868
STARLINK-6320           
1 57336U 23099J   25353.26991010  .00000561  00000+0  56557-4 0  9996
2 57336  43.0052 325.5678 0001071 272.9818  87.0902 15.02547957134023
STARLINK-6322           
1 57337U 23099K   25353.24117175 -.00000186  00000+0  13425-5 0  9999
2 57337  43.0048 326.2289 0001329 269.0295  91.0395 15.02532254134011
STARLINK-6374           
1 57338U 23099L   25353.63559435  .00000183  00000+0  28612-4 0  9991
2 57338  43.0050 324.0229 0000988 263.7761  96.2969 15.02539870134075
STARLINK-6332           
1 57339U 23099M   25353.30986828  .00000036  00000+0  17733-4 0  9995
2 57339  43.0058 325.8821 0001129 269.5984  90.4729 15.02535447134021
STARLINK-6321           
1 57340U 23099N   25353.29099964  .00000409  00000+0  45373-4 0  9996
2 57340  43.0050 325.7402 0001147 276.3737  83.6975 15.02536834134029
STARLINK-6377           
1 57341U 23099P   25352.96415944 -.00003576  00000+0 -24968-3 0  9996
2 57341  43.0045 327.5858 0001020 254.5170 105.5559 15.02550201133977
