[{"OBJECT_NAME":"STARLINK-30163","OBJECT_ID":"2023-096V","EPOCH":"2025-12-19T18:33:48.646944","MEAN_MOTION":16.17853706,"ECCENTRICITY":0.0020358,"INCLINATION":42.9682,"RA_OF_ASC_NODE":212.1939,"ARG_OF_PERICENTER":256.6631,"MEAN_ANOMALY":103.1983,"EPHEMERIS_TYPE":0,"CLASSIFICATION_TYPE":"U","NORAD_CAT_ID":57309,"ELEMENT_SET_NO":999,"REV_AT_EPOCH":13567,"BSTAR":0.0011412,"MEAN_MOTION_DOT":0.02044137,"MEAN_MOTION_DDOT":8.8077e-6},{"OBJECT_NAME":"STARLINK-30184","OBJECT_ID":"2023-096W","EPOCH":"2025-12-19T03:31:34.177440","MEAN_MOTION":15.0254005,"ECCENTRICITY":8.972e-5,"INCLINATION":43.004,"RA_OF_ASC_NODE":274.7792,"ARG_OF_PERICENTER":294.4334,"MEAN_ANOMALY":65.6415,"EPHEMERIS_TYPE":0,"CLASSIFICATION_TYPE":"U","NORAD_CAT_ID":57310,"ELEMENT_SET_NO":999,"REV_AT_EPOCH":13490,"BSTAR":-1.5251621e-5,"MEAN_MOTION_DOT":-4.1e-6,"MEAN_MOTION_DDOT":0},{"OBJECT_NAME":"STARLINK-30175","OBJECT_ID":"2023-096X","EPOCH":"2025-12-19T20:00:01.999008","MEAN_MOTION":15.49037182,"ECCENTRICITY":0.0032986,"INCLINATION":42.9825,"RA_OF_ASC_NODE":258.8038,"ARG_OF_PERICENTER":195.454,"MEAN_ANOMALY":141.8799,"EPHEMERIS_TYPE":0,"CLASSIFICATION_TYPE":"U","NORAD_CAT_ID":57311,"ELEMENT_SET_NO":999,"REV_AT_EPOCH":587,"BSTAR":0.0023937,"MEAN_MOTION_DOT":0.00137887,"MEAN_MOTION_DDOT":0},{"OBJECT_NAME":"STARLINK-6290","OBJECT_ID":"2023-099A","EPOCH":"2025-12-19T07:46:59.367072","MEAN_MOTION":15.0253293,"ECCENTRICITY":0.0001244,"INCLINATION":43.0058,"RA_OF_ASC_NODE":325.9975,"ARG_OF_PERICENTER":267.9158,"MEAN_ANOMALY":92.1542,"EPHEMERIS_TYPE":0,"CLASSIFICATION_TYPE":"U","NORAD_CAT_ID":57328,"ELEMENT_SET_NO":999,"REV_AT_EPOCH":13493,"BSTAR":2.3494e-5,"MEAN_MOTION_DOT":1.14e-6,"MEAN_MOTION_DDOT":0},{"OBJECT_NAME":"STARLINK-6138","OBJECT_ID":"2023-099B","EPOCH":"2025-12-19T05:56:52.437696","MEAN_MOTION":15.02538364,"ECCENTRICITY":0.0001188,"INCLINATION":43.005,"RA_OF_ASC_NODE":326.2756,"ARG_OF_PERICENTER":275.1396,"MEAN_ANOMALY":84.9311,"EPHEMERIS_TYPE":0,"CLASSIFICATION_TYPE":"U","NORAD_CAT_ID":57329,"ELEMENT_SET_NO":999,"REV_AT_EPOCH":13401,"BSTAR":6.2405e-5,"MEAN_MOTION_DOT":6.39e-6,"MEAN_MOTION_DDOT":0},{"OBJECT_NAME":"STARLINK-6212","OBJECT_ID":"2023-099C","EPOCH":"2025-12-19T15:40:51.295872","MEAN_MOTION":15.02551079,"ECCENTRICITY":4.98e-5,"INCLINATION":43.0032,"RA_OF_ASC_NODE":324.1667,"ARG_OF_PERICENTER":276.9566,"MEAN_ANOMALY":83.1219,"EPHEMERIS_TYPE":0,"CLASSIFICATION_TYPE":"U","NORAD_CAT_ID":57330,"ELEMENT_SET_NO":999,"REV_AT_EPOCH":13407,"BSTAR":0.00055295,"MEAN_MOTION_DOT":7.277e-5,"MEAN_MOTION_DDOT":0},{"OBJECT_NAME":"STARLINK-6234","OBJECT_ID":"2023-099D","EPOCH":"2025-12-19T15:39:14.052672","MEAN_MOTION":15.02535895,"ECCENTRICITY":0.0001117,"INCLINATION":43.0046,"RA_OF_ASC_NODE":324.1573,"ARG_OF_PERICENTER":267.9807,"MEAN_ANOMALY":92.0907,"EPHEMERIS_TYPE":0,"CLASSIFICATION_TYPE":"U","NORAD_CAT_ID":57331,"ELEMENT_SET_NO":999,"REV_AT_EPOCH":13407,"BSTAR":3.2892e-5,"MEAN_MOTION_DOT":2.41e-6,"MEAN_MOTION_DDOT":0},{"OBJECT_NAME":"STARLINK-5831","OBJECT_ID":"2023-099E","EPOCH":"2025-12-19T06:01:40.080576","MEAN_MOTION":15.02534316,"ECCENTRICITY":0.0001112,"INCLINATION":43.0058,"RA_OF_ASC_NODE":326.3046,"ARG_OF_PERICENTER":272.8038,"MEAN_ANOMALY":87.2678,"EPHEMERIS_TYPE":0,"CLASSIFICATION_TYPE":"U","NORAD_CAT_ID":57332,"ELEMENT_SET_NO":999,"REV_AT_EPOCH":13401,"BSTAR":7.5299e-5,"MEAN_MOTION_DOT":8.14e-6,"MEAN_MOTION_DDOT":0},{"OBJECT_NAME":"STARLINK-5585","OBJECT_ID":"2023-099F","EPOCH":"2025-12-19T06:00:04.218912","MEAN_MOTION":15.025376,"ECCENTRICITY":0.0001115,"INCLINATION":43.0048,"RA_OF_ASC_NODE":326.2975,"ARG_OF_PERICENTER":275.6549,"MEAN_ANOMALY":84.4166,"EPHEMERIS_TYPE":0,"CLASSIFICATION_TYPE":"U","NORAD_CAT_ID":57333,"ELEMENT_SET_NO":999,"REV_AT_EPOCH":13401,"BSTAR":5.4018e-5,"MEAN_MOTION_DOT":5.26e-6,"MEAN_MOTION_DDOT":0},{"OBJECT_NAME":"STARLINK-5589","OBJECT_ID":"2023-099G","EPOCH":"2025-12-18T21:53:26.714400","MEAN_MOTION":15.02534775,"ECCENTRICITY":0.00011592,"INCLINATION":43.0052,"RA_OF_ASC_NODE":328.0544,"ARG_OF_PERICENTER":273.0276,"MEAN_ANOMALY":87.0434,"EPHEMERIS_TYPE":0,"CLASSIFICATION_TYPE":"U","NORAD_CAT_ID":57334,"ELEMENT_SET_NO":999,"REV_AT_EPOCH":13396,"BSTAR":-4.7885175e-5,"MEAN_MOTION_DOT":-8.5e-6,"MEAN_MOTION_DDOT":0},{"OBJECT_NAME":"STARLINK-6316","OBJECT_ID":"2023-099H","EPOCH":"2025-12-18T05:40:10.764480","MEAN_MOTION":15.02538145,"ECCENTRICITY":0.00012207,"INCLINATION":43.0057,"RA_OF_ASC_NODE":331.5919,"ARG_OF_PERICENTER":271.0854,"MEAN_ANOMALY":88.9849,"EPHEMERIS_TYPE":0,"CLASSIFICATION_TYPE":"U","NORAD_CAT_ID":57335,"ELEMENT_SET_NO":999,"REV_AT_EPOCH":13386,"BSTAR":-3.5032756e-5,"MEAN_MOTION_DOT":-6.77e-6,"MEAN_MOTION_DDOT":0},{"OBJECT_NAME":"STARLINK-6320","OBJECT_ID":"2023-099J","EPOCH":"2025-12-19T06:28:40.232640","MEAN_MOTION":15.02547957,"ECCENTRICITY":0.0001071,"INCLINATION":43.0052,"RA_OF_ASC_NODE":325.5678,"ARG_OF_PERICENTER":272.9818,"MEAN_ANOMALY":87.0902,"EPHEMERIS_TYPE":0,"CLASSIFICATION_TYPE":"U","NORAD_CAT_ID":57336,"ELEMENT_SET_NO":999,"REV_AT_EPOCH":13402,"BSTAR":5.6557e-5,"MEAN_MOTION_DOT":5.61e-6,"MEAN_MOTION_DDOT":0},{"OBJECT_NAME":"STARLINK-6322","OBJECT_ID":"2023-099K","EPOCH":"2025-12-19T05:47:17.239200","MEAN_MOTION":15.02532254,"ECCENTRICITY":0.0001329,"INCLINATION":43.0048,"RA_OF_ASC_NODE":326.2289,"ARG_OF_PERICENTER":269.0295,"MEAN_ANOMALY":91.0395,"EPHEMERIS_TYPE":0,"CLASSIFICATION_TYPE":"U","NORAD_CAT_ID":57337,"ELEMENT_SET_NO":999,"REV_AT_EPOCH":13401,"BSTAR":1.3425e-6,"MEAN_MOTION_DOT":-1.86e-6,"MEAN_MOTION_DDOT":0},{"OBJECT_NAME":"STARLINK-6374","OBJECT_ID":"2023-099L","EPOCH":"2025-12-19T15:15:15.351840","MEAN_MOTION":15.0253987,"ECCENTRICITY":9.88e-5,"INCLINATION":43.005,"RA_OF_ASC_NODE":324.0229,"ARG_OF_PERICENTER":263.7761,"MEAN_ANOMALY":96.2969,"EPHEMERIS_TYPE":0,"CLASSIFICATION_TYPE":"U","NORAD_CAT_ID":57338,"ELEMENT_SET_NO":999,"REV_AT_EPOCH":13407,"BSTAR":2.8612e-5,"MEAN_MOTION_DOT":1.83e-6,"MEAN_MOTION_DDOT":0},{"OBJECT_NAME":"STARLINK-6332","OBJECT_ID":"2023-099M","EPOCH":"2025-12-19T07:26:12.619392","MEAN_MOTION":15.02535447,"ECCENTRICITY":0.0001129,"INCLINATION":43.0058,"RA_OF_ASC_NODE":325.8821,"ARG_OF_PERICENTER":269.5984,"MEAN_ANOMALY":90.4729,"EPHEMERIS_TYPE":0,"CLASSIFICATION_TYPE":"U","NORAD_CAT_ID":57339,"ELEMENT_SET_NO":999,"REV_AT_EPOCH":13402,"BSTAR":1.7733e-5,"MEAN_MOTION_DOT":3.6e-7,"MEAN_MOTION_DDOT":0},{"OBJECT_NAME":"STARLINK-6321","OBJECT_ID":"2023-099N","EPOCH":"2025-12-19T06:59:02.368896","MEAN_MOTION":15.02536834,"ECCENTRICITY":0.0001147,"INCLINATION":43.005,"RA_OF_ASC_NODE":325.7402,"ARG_OF_PERICENTER":276.3737,"MEAN_ANOMALY":83.6975,"EPHEMERIS_TYPE":0,"CLASSIFICATION_TYPE":"U","NORAD_CAT_ID":57340,"ELEMENT_SET_NO":999,"REV_AT_EPOCH":13402,"BSTAR":4.5373e-5,"MEAN_MOTION_DOT":4.09e-6,"MEAN_MOTION_DDOT":0},{"OBJECT_NAME":"STARLINK-6377","OBJECT_ID":"2023-099P","EPOCH":"2025-12-18T23:08:23.375616","MEAN_MOTION":15.02550201,"ECCENTRICITY":0.00010207,"INCLINATION":43.0045,"RA_OF_ASC_NODE":327.5858,"ARG_OF_PERICENTER":254.517,"MEAN_ANOMALY":105.5559,"EPHEMERIS_TYPE":0,"CLASSIFICATION_TYPE":"U","NORAD_CAT_ID":57341,"ELEMENT_SET_NO":999,"REV_AT_EPOCH":13397,"BSTAR":-0.00024968242,"MEAN_MOTION_DOT":-3.576e-5,"MEAN_MOTION_DDOT":0}]
